[{"OBJECT_NAME":"STARLINK-34060","OBJECT_ID":"2025-092M","EPOCH":"2026-03-09T08:03:04.891392","MEAN_MOTION":15.27572284,"ECCENTRICITY":9.756e-5,"INCLINATION":43.003,"RA_OF_ASC_NODE":174.2772,"ARG_OF_PERICENTER":270.5155,"MEAN_ANOMALY":89.5585,"EPHEMERIS_TYPE":0,"CLASSIFICATION_TYPE":"U","NORAD_CAT_ID":63815,"ELEMENT_SET_NO":999,"REV_AT_EPOCH":4850,"BSTAR":0.00075063887,"MEAN_MOTION_DOT":0.00020446,"MEAN_MOTION_DDOT":0},{"OBJECT_NAME":"REAL","OBJECT_ID":"2025-154G","EPOCH":"2026-03-09T17:20:09.670560","MEAN_MOTION":15.28408058,"ECCENTRICITY":0.00018528,"INCLINATION":97.4133,"RA_OF_ASC_NODE":137.2581,"ARG_OF_PERICENTER":118.5876,"MEAN_ANOMALY":241.555,"EPHEMERIS_TYPE":0,"CLASSIFICATION_TYPE":"U","NORAD_CAT_ID":64875,"ELEMENT_SET_NO":999,"REV_AT_EPOCH":3483,"BSTAR":0.0008290401,"MEAN_MOTION_DOT":0.00022901,"MEAN_MOTION_DDOT":0}]
